{"type":"FeatureCollection","features":[{"type":"Feature","properties":{"name":"Frontière terrestre du Maroc"},"geometry":{"type":"LineString","coordinates":[[-2.222564,35.089301],[-2.193789,35.003601],[-2.01628,34.926241],[-1.979745,34.865263],[-1.769526,34.741343],[-1.871121,34.596649],[-1.702966,34.479679],[-1.809626,34.372451],[-1.746064,34.290311],[-1.669635,34.079213],[-1.718728,33.898087],[-1.703225,33.761816],[-1.746788,33.702388],[-1.6624,33.644692],[-1.617338,33.554439],[-1.683226,33.36923],[-1.674234,33.237972],[-1.499516,33.060205],[-1.502978,32.974629],[-1.558789,32.93365],[-1.423345,32.742395],[-1.031999,32.4944],[-1.244131,32.356915],[-1.276636,32.200852],[-1.309554,32.167443],[-1.195607,32.146049],[-1.210335,32.08967],[-2.516147,32.1322],[-2.881189,32.076286],[-2.938731,32.048639],[-2.827836,31.794586],[-3.659507,31.647821],[-3.673484,31.389234],[-3.747467,31.385166],[-3.815189,31.337158],[-3.842836,31.170192],[-3.810796,31.142906],[-3.731421,31.176341],[-3.624141,31.086527],[-3.554674,30.955927],[-3.659507,30.837116],[-3.645529,30.711317],[-3.834228,30.627452],[-4.155714,30.585519],[-4.372368,30.508641],[-4.623966,30.284999],[-4.875564,30.180166],[-5.176083,29.97749],[-5.539503,29.523216],[-5.637346,29.495261],[-5.721212,29.523216],[-5.756156,29.614071],[-6.27333,29.579127],[-6.699649,29.516227],[-6.783515,29.446339],[-6.958236,29.509238],[-7.146934,29.509238],[-7.258755,29.467305],[-7.34961,29.383439],[-7.653611,29.376193],[-8.678768,28.692823],[-8.687656,26.000016],[-12.015308,25.9949],[-12.019339,23.460998],[-12.353892,23.322479],[-12.619432,23.270829],[-13.015247,23.018002],[-13.152293,22.820004],[-13.15498,22.688797],[-13.09333,22.495476],[-13.015247,21.333428],[-16.958831,21.332859]]}}]}