{"type": "FeatureCollection", "features": [{"type": "Feature", "properties": {"name": "Maroc"}, "geometry": {"type": "Polygon", "coordinates": [[[-8.678768, 28.692823], [-8.687656, 26.000016], [-12.015308, 25.9949], [-12.019339, 23.460998], [-12.353892, 23.322479], [-12.619432, 23.270829], [-13.015247, 23.018002], [-13.152293, 22.820004], [-13.15498, 22.688797], [-13.09333, 22.495476], [-13.015247, 21.333428], [-16.958831, 21.332859], [-17.077428, 20.904513], [-17.056874, 20.766913], [-17.104644, 20.862494], [-16.92101, 21.931301], [-16.706776, 22.275458], [-16.52184, 22.314887], [-16.466624, 22.377387], [-16.429351, 22.510443], [-16.357289, 22.583075], [-16.289622, 22.899807], [-16.238637, 22.911566], [-16.163238, 22.993232], [-16.159535, 23.082465], [-16.213124, 23.094428], [-15.772613, 23.787828], [-15.775136, 23.911933], [-15.795318, 23.856635], [-15.888173, 23.810736], [-15.948232, 23.684312], [-16.009755, 23.655422], [-15.871246, 23.869208], [-15.768137, 23.959866], [-15.620107, 24.026272], [-15.203969, 24.467475], [-15.014801, 24.562445], [-14.999989, 24.614488], [-14.895619, 24.705715], [-14.836049, 24.918687], [-14.849721, 25.214179], [-14.819244, 25.330227], [-14.620961, 25.783596], [-14.513905, 25.936957], [-14.466135, 26.194241], [-14.400746, 26.266303], [-14.29894, 26.302232], [-14.180247, 26.424384], [-13.923736, 26.500881], [-13.561106, 26.749091], [-13.402455, 27.177191], [-13.240834, 27.465399], [-13.171254, 27.685004], [-13.045155, 27.759833], [-12.952382, 27.928616], [-12.838938, 27.970404], [-12.513539, 27.995429], [-12.061431, 28.089016], [-11.485585, 28.325629], [-11.0631, 28.752387], [-10.573801, 28.990424], [-10.248402, 29.299384], [-10.086985, 29.509955], [-10.052968, 29.599921], [-9.820221, 29.838935], [-9.655141, 30.126899], [-9.611643, 30.404364], [-9.700063, 30.542711], [-9.888539, 30.648261], [-9.812896, 30.827135], [-9.847524, 31.121283], [-9.80663, 31.343451], [-9.847524, 31.402411], [-9.694203, 31.625718], [-9.667307, 31.731147], [-9.366119, 32.026313], [-9.27774, 32.196601], [-9.26476, 32.330634], [-9.291982, 32.350816], [-9.24885, 32.452541], [-9.27831, 32.529527], [-9.259918, 32.57689], [-8.867787, 32.881903], [-8.529164, 33.268704], [-8.45165, 33.264228], [-8.284657, 33.389838], [-7.891428, 33.503363], [-7.667551, 33.612698], [-7.529124, 33.632636], [-7.406361, 33.726996], [-7.35261, 33.724677], [-7.031809, 33.874254], [-6.822092, 34.039618], [-6.557932, 34.417711], [-6.292104, 34.880805], [-5.927235, 35.780748], [-5.769276, 35.792792], [-5.693512, 35.834296], [-5.598988, 35.822333], [-5.398859, 35.924504], [-5.340728, 35.847357], [-5.318756, 35.701728], [-5.276763, 35.685207], [-5.24942, 35.584621], [-5.066274, 35.417467], [-4.770497, 35.241034], [-4.376047, 35.151842], [-3.919342, 35.266832], [-3.903901, 35.214173], [-3.787465, 35.209215], [-3.699574, 35.290839], [-3.590972, 35.233303], [-3.319244, 35.201809], [-3.077056, 35.287909], [-2.968577, 35.446438], [-2.963768, 35.286219], [-2.899037, 35.259996], [-2.90982, 35.186713], [-2.856068, 35.131293], [-2.748118, 35.115953], [-2.878407, 35.246324], [-2.761098, 35.143256], [-2.666737, 35.108222], [-2.517486, 35.099351], [-2.416737, 35.149156], [-2.275258, 35.109565], [-2.222564, 35.089301], [-2.193789, 35.003601], [-2.01628, 34.926241], [-1.979745, 34.865263], [-1.769526, 34.741343], [-1.871121, 34.596649], [-1.702966, 34.479679], [-1.809626, 34.372451], [-1.746064, 34.290311], [-1.669635, 34.079213], [-1.718728, 33.898087], [-1.703225, 33.761816], [-1.746788, 33.702388], [-1.6624, 33.644692], [-1.617338, 33.554439], [-1.683226, 33.36923], [-1.674234, 33.237972], [-1.499516, 33.060205], [-1.502978, 32.974629], [-1.558789, 32.93365], [-1.423345, 32.742395], [-1.031999, 32.4944], [-1.244131, 32.356915], [-1.276636, 32.200852], [-1.309554, 32.167443], [-1.195607, 32.146049], [-1.210335, 32.08967], [-2.516147, 32.1322], [-2.881189, 32.076286], [-2.938731, 32.048639], [-2.827836, 31.794586], [-3.659507, 31.647821], [-3.673484, 31.389234], [-3.747467, 31.385166], [-3.815189, 31.337158], [-3.842836, 31.170192], [-3.810796, 31.142906], [-3.731421, 31.176341], [-3.624141, 31.086527], [-3.554674, 30.955927], [-3.659507, 30.837116], [-3.645529, 30.711317], [-3.834228, 30.627452], [-4.155714, 30.585519], [-4.372368, 30.508641], [-4.623966, 30.284999], [-4.875564, 30.180166], [-5.176083, 29.97749], [-5.539503, 29.523216], [-5.637346, 29.495261], [-5.721212, 29.523216], [-5.756156, 29.614071], [-6.27333, 29.579127], [-6.699649, 29.516227], [-6.783515, 29.446339], [-6.958236, 29.509238], [-7.146934, 29.509238], [-7.258755, 29.467305], [-7.34961, 29.383439], [-7.653611, 29.376193], [-8.678768, 28.692823]]]}}]}