{"type":"FeatureCollection","features":[{"type":"Feature","geometry":{"type":"Point","coordinates":[66.4966,34.1643]},"properties":{"name":"Afghanistan","name_en":"Afghanistan","name:latin":"Afghanistan","name:fr":"Afghanistan","name:ar":"أفغانستان","name:nonlatin":"أفغانستان","iso_a2":"AF","adm0_a3":"AFG","rank":2}},{"type":"Feature","geometry":{"type":"Point","coordinates":[17.9842,-12.1828]},"properties":{"name":"Angola","name_en":"Angola","name:latin":"Angola","name:fr":"Angola","name:ar":"أنغولا","name:nonlatin":"أنغولا","iso_a2":"AO","adm0_a3":"AGO","rank":2}},{"type":"Feature","geometry":{"type":"Point","coordinates":[20.1138,40.6549]},"properties":{"name":"Albania","name_en":"Albania","name:latin":"Albania","name:fr":"Albanie","name:ar":"ألبانيا","name:nonlatin":"ألبانيا","iso_a2":"AL","adm0_a3":"ALB","rank":3}},{"type":"Feature","geometry":{"type":"Point","coordinates":[54.5473,23.4663]},"properties":{"name":"United Arab Emirates","name_en":"United Arab Emirates","name:latin":"United Arab Emirates","name:fr":"Émirats arabes unis","name:ar":"الإمارات العربية المتحدة","name:nonlatin":"الإمارات العربية المتحدة","iso_a2":"AE","adm0_a3":"ARE","rank":2}},{"type":"Feature","geometry":{"type":"Point","coordinates":[-64.1733,-33.5012]},"properties":{"name":"Argentina","name_en":"Argentina","name:latin":"Argentina","name:fr":"Argentine","name:ar":"الأرجنتين","name:nonlatin":"الأرجنتين","iso_a2":"AR","adm0_a3":"ARG","rank":1}},{"type":"Feature","geometry":{"type":"Point","coordinates":[44.8006,40.4591]},"properties":{"name":"Armenia","name_en":"Armenia","name:latin":"Armenia","name:fr":"Arménie","name:ar":"أرمينيا","name:nonlatin":"أرمينيا","iso_a2":"AM","adm0_a3":"ARM","rank":3}},{"type":"Feature","geometry":{"type":"Point","coordinates":[35.8855,-79.8432]},"properties":{"name":"Antarctica","name_en":"Antarctica","name:latin":"Antarctica","name:fr":"Antarctique","name:ar":"القارة القطبية الجنوبية","name:nonlatin":"القارة القطبية الجنوبية","iso_a2":"AQ","adm0_a3":"ATA","rank":2}},{"type":"Feature","geometry":{"type":"Point","coordinates":[134.0497,-24.1295]},"properties":{"name":"Australia","name_en":"Australia","name:latin":"Australia","name:fr":"Australie","name:ar":"أستراليا","name:nonlatin":"أستراليا","iso_a2":"AU","adm0_a3":"AUS","rank":1}},{"type":"Feature","geometry":{"type":"Point","coordinates":[14.1305,47.5189]},"properties":{"name":"Austria","name_en":"Austria","name:latin":"Austria","name:fr":"Autriche","name:ar":"النمسا","name:nonlatin":"النمسا","iso_a2":"AT","adm0_a3":"AUT","rank":2}},{"type":"Feature","geometry":{"type":"Point","coordinates":[47.211,40.4024]},"properties":{"name":"Azerbaijan","name_en":"Azerbaijan","name:latin":"Azerbaijan","name:fr":"Azerbaïdjan","name:ar":"أذربيجان","name:nonlatin":"أذربيجان","iso_a2":"AZ","adm0_a3":"AZE","rank":3}},{"type":"Feature","geometry":{"type":"Point","coordinates":[29.9171,-3.3328]},"properties":{"name":"Burundi","name_en":"Burundi","name:latin":"Burundi","name:fr":"Burundi","name:ar":"بوروندي","name:nonlatin":"بوروندي","iso_a2":"BI","adm0_a3":"BDI","rank":3}},{"type":"Feature","geometry":{"type":"Point","coordinates":[4.8004,50.7854]},"properties":{"name":"Belgium","name_en":"Belgium","name:latin":"Belgium","name:fr":"Belgique","name:ar":"بلجيكا","name:nonlatin":"بلجيكا","iso_a2":"BE","adm0_a3":"BEL","rank":1}},{"type":"Feature","geometry":{"type":"Point","coordinates":[2.352,10.3248]},"properties":{"name":"Benin","name_en":"Benin","name:latin":"Benin","name:fr":"Bénin","name:ar":"بنين","name:nonlatin":"بنين","iso_a2":"BJ","adm0_a3":"BEN","rank":3}},{"type":"Feature","geometry":{"type":"Point","coordinates":[-1.3639,12.673]},"properties":{"name":"Burkina Faso","name_en":"Burkina Faso","name:latin":"Burkina Faso","name:fr":"Burkina Faso","name:ar":"بوركينا فاسو","name:nonlatin":"بوركينا فاسو","iso_a2":"BF","adm0_a3":"BFA","rank":2}},{"type":"Feature","geometry":{"type":"Point","coordinates":[89.685,24.215]},"properties":{"name":"Bangladesh","name_en":"Bangladesh","name:latin":"Bangladesh","name:fr":"Bangladesh","name:ar":"بنغلاديش","name:nonlatin":"بنغلاديش","iso_a2":"BD","adm0_a3":"BGD","rank":2}},{"type":"Feature","geometry":{"type":"Point","coordinates":[25.1571,42.5088]},"properties":{"name":"Bulgaria","name_en":"Bulgaria","name:latin":"Bulgaria","name:fr":"Bulgarie","name:ar":"بلغاريا","name:nonlatin":"بلغاريا","iso_a2":"BG","adm0_a3":"BGR","rank":2}},{"type":"Feature","geometry":{"type":"Point","coordinates":[-77.1467,26.4018]},"properties":{"name":"The Bahamas","name_en":"The Bahamas","name:latin":"The Bahamas","name:fr":"Bahamas","name:ar":"باهاماس","name:nonlatin":"باهاماس","iso_a2":"BS","adm0_a3":"BHS","rank":2}},{"type":"Feature","geometry":{"type":"Point","coordinates":[18.0684,44.0911]},"properties":{"name":"Bosnia and Herzegovina","name_en":"Bosnia and Herzegovina","name:latin":"Bosnia and Herzegovina","name:fr":"Bosnie-Herzégovine","name:ar":"البوسنة والهرسك","name:nonlatin":"البوسنة والهرسك","iso_a2":"BA","adm0_a3":"BIH","rank":3}},{"type":"Feature","geometry":{"type":"Point","coordinates":[28.4177,53.8219]},"properties":{"name":"Belarus","name_en":"Belarus","name:latin":"Belarus","name:fr":"Biélorussie","name:ar":"بيلاروسيا","name:nonlatin":"بيلاروسيا","iso_a2":"BY","adm0_a3":"BLR","rank":2}},{"type":"Feature","geometry":{"type":"Point","coordinates":[-88.713,17.2021]},"properties":{"name":"Belize","name_en":"Belize","name:latin":"Belize","name:fr":"Belize","name:ar":"بليز","name:nonlatin":"بليز","iso_a2":"BZ","adm0_a3":"BLZ","rank":3}},{"type":"Feature","geometry":{"type":"Point","coordinates":[-64.5934,-16.666]},"properties":{"name":"Bolivia","name_en":"Bolivia","name:latin":"Bolivia","name:fr":"Bolivie","name:ar":"بوليفيا","name:nonlatin":"بوليفيا","iso_a2":"BO","adm0_a3":"BOL","rank":2}},{"type":"Feature","geometry":{"type":"Point","coordinates":[-49.5594,-12.0987]},"properties":{"name":"Brazil","name_en":"Brazil","name:latin":"Brazil","name:fr":"Brésil","name:ar":"البرازيل","name:nonlatin":"البرازيل","iso_a2":"BR","adm0_a3":"BRA","rank":1}},{"type":"Feature","geometry":{"type":"Point","coordinates":[114.5519,4.4483]},"properties":{"name":"Brunei","name_en":"Brunei","name:latin":"Brunei","name:fr":"Brunei","name:ar":"بروناي","name:nonlatin":"بروناي","iso_a2":"BN","adm0_a3":"BRN","rank":3}},{"type":"Feature","geometry":{"type":"Point","coordinates":[90.0403,27.5367]},"properties":{"name":"Bhutan","name_en":"Bhutan","name:latin":"Bhutan","name:fr":"Bhoutan","name:ar":"بوتان","name:nonlatin":"بوتان","iso_a2":"BT","adm0_a3":"BTN","rank":3}},{"type":"Feature","geometry":{"type":"Point","coordinates":[24.1792,-22.1026]},"properties":{"name":"Botswana","name_en":"Botswana","name:latin":"Botswana","name:fr":"Botswana","name:ar":"بوتسوانا","name:nonlatin":"بوتسوانا","iso_a2":"BW","adm0_a3":"BWA","rank":2}},{"type":"Feature","geometry":{"type":"Point","coordinates":[20.9069,6.9897]},"properties":{"name":"Central African Republic","name_en":"Central African Republic","name:latin":"Central African Republic","name:fr":"République centrafricaine","name:ar":"جمهورية أفريقيا الوسطى","name:nonlatin":"جمهورية أفريقيا الوسطى","iso_a2":"CF","adm0_a3":"CAF","rank":2}},{"type":"Feature","geometry":{"type":"Point","coordinates":[-101.9107,60.3243]},"properties":{"name":"Canada","name_en":"Canada","name:latin":"Canada","name:fr":"Canada","name:ar":"كندا","name:nonlatin":"كندا","iso_a2":"CA","adm0_a3":"CAN","rank":1}},{"type":"Feature","geometry":{"type":"Point","coordinates":[7.464,46.7191]},"properties":{"name":"Switzerland","name_en":"Switzerland","name:latin":"Switzerland","name:fr":"Suisse","name:ar":"سويسرا","name:nonlatin":"سويسرا","iso_a2":"CH","adm0_a3":"CHE","rank":2}},{"type":"Feature","geometry":{"type":"Point","coordinates":[-72.3189,-38.1518]},"properties":{"name":"Chile","name_en":"Chile","name:latin":"Chile","name:fr":"Chili","name:ar":"تشيلي","name:nonlatin":"تشيلي","iso_a2":"CL","adm0_a3":"CHL","rank":1}},{"type":"Feature","geometry":{"type":"Point","coordinates":[106.3373,32.4982]},"properties":{"name":"People's Republic of China","name_en":"People's Republic of China","name:latin":"People's Republic of China","name:fr":"République populaire de Chine","name:ar":"الصين","name:nonlatin":"الصين","iso_a2":"CN","adm0_a3":"CHN","rank":1}},{"type":"Feature","geometry":{"type":"Point","coordinates":[-5.5686,7.4914]},"properties":{"name":"Ivory Coast","name_en":"Ivory Coast","name:latin":"Ivory Coast","name:fr":"Côte d'Ivoire","name:ar":"ساحل العاج","name:nonlatin":"ساحل العاج","iso_a2":"CI","adm0_a3":"CIV","rank":2}},{"type":"Feature","geometry":{"type":"Point","coordinates":[12.4735,4.585]},"properties":{"name":"Cameroon","name_en":"Cameroon","name:latin":"Cameroon","name:fr":"Cameroun","name:ar":"الكاميرون","name:nonlatin":"الكاميرون","iso_a2":"CM","adm0_a3":"CMR","rank":2}},{"type":"Feature","geometry":{"type":"Point","coordinates":[23.4588,-1.8582]},"properties":{"name":"Democratic Republic of the Congo","name_en":"Democratic Republic of the Congo","name:latin":"Democratic Republic of the Congo","name:fr":"République démocratique du Congo","name:ar":"جمهورية الكونغو الديمقراطية","name:nonlatin":"جمهورية الكونغو الديمقراطية","iso_a2":"CD","adm0_a3":"COD","rank":1}},{"type":"Feature","geometry":{"type":"Point","coordinates":[15.9005,0.1423]},"properties":{"name":"Republic of the Congo","name_en":"Republic of the Congo","name:latin":"Republic of the Congo","name:fr":"République du Congo","name:ar":"جمهورية الكونغو","name:nonlatin":"جمهورية الكونغو","iso_a2":"CG","adm0_a3":"COG","rank":2}},{"type":"Feature","geometry":{"type":"Point","coordinates":[-73.1743,3.3731]},"properties":{"name":"Colombia","name_en":"Colombia","name:latin":"Colombia","name:fr":"Colombie","name:ar":"كولومبيا","name:nonlatin":"كولومبيا","iso_a2":"CO","adm0_a3":"COL","rank":1}},{"type":"Feature","geometry":{"type":"Point","coordinates":[-84.0779,10.0651]},"properties":{"name":"Costa Rica","name_en":"Costa Rica","name:latin":"Costa Rica","name:fr":"Costa Rica","name:ar":"كوستاريكا","name:nonlatin":"كوستاريكا","iso_a2":"CR","adm0_a3":"CRI","rank":3}},{"type":"Feature","geometry":{"type":"Point","coordinates":[-77.9759,21.334]},"properties":{"name":"Cuba","name_en":"Cuba","name:latin":"Cuba","name:fr":"Cuba","name:ar":"كوبا","name:nonlatin":"كوبا","iso_a2":"CU","adm0_a3":"CUB","rank":2}},{"type":"Feature","geometry":{"type":"Point","coordinates":[33.6924,35.2161]},"properties":{"name":"Turkish Republic of Northern Cyprus","name_en":"Turkish Republic of Northern Cyprus","name:latin":"Turkish Republic of Northern Cyprus","name:fr":"Chypre du Nord","name:ar":"قبرص الشمالية","name:nonlatin":"قبرص الشمالية","iso_a2":"-99","adm0_a3":"CYN","rank":3}},{"type":"Feature","geometry":{"type":"Point","coordinates":[33.0842,34.9133]},"properties":{"name":"Cyprus","name_en":"Cyprus","name:latin":"Cyprus","name:fr":"Chypre","name:ar":"قبرص","name:nonlatin":"قبرص","iso_a2":"CY","adm0_a3":"CYP","rank":3}},{"type":"Feature","geometry":{"type":"Point","coordinates":[15.3776,49.8824]},"properties":{"name":"Czech Republic","name_en":"Czech Republic","name:latin":"Czech Republic","name:fr":"Tchéquie","name:ar":"التشيك","name:nonlatin":"التشيك","iso_a2":"CZ","adm0_a3":"CZE","rank":3}},{"type":"Feature","geometry":{"type":"Point","coordinates":[9.6783,50.9617]},"properties":{"name":"Germany","name_en":"Germany","name:latin":"Germany","name:fr":"Allemagne","name:ar":"ألمانيا","name:nonlatin":"ألمانيا","iso_a2":"DE","adm0_a3":"DEU","rank":1}},{"type":"Feature","geometry":{"type":"Point","coordinates":[42.4988,11.9763]},"properties":{"name":"Djibouti","name_en":"Djibouti","name:latin":"Djibouti","name:fr":"Djibouti","name:ar":"جيبوتي","name:nonlatin":"جيبوتي","iso_a2":"DJ","adm0_a3":"DJI","rank":3}},{"type":"Feature","geometry":{"type":"Point","coordinates":[9.0182,55.967]},"properties":{"name":"Denmark","name_en":"Denmark","name:latin":"Denmark","name:fr":"Danemark","name:ar":"الدنمارك","name:nonlatin":"الدنمارك","iso_a2":"DK","adm0_a3":"DNK","rank":2}},{"type":"Feature","geometry":{"type":"Point","coordinates":[-70.654,19.1041]},"properties":{"name":"Dominican Republic","name_en":"Dominican Republic","name:latin":"Dominican Republic","name:fr":"République dominicaine","name:ar":"جمهورية الدومينيكان","name:nonlatin":"جمهورية الدومينيكان","iso_a2":"DO","adm0_a3":"DOM","rank":3}},{"type":"Feature","geometry":{"type":"Point","coordinates":[2.8082,27.3974]},"properties":{"name":"Algeria","name_en":"Algeria","name:latin":"Algeria","name:fr":"Algérie","name:ar":"الجزائر","name:nonlatin":"الجزائر","iso_a2":"DZ","adm0_a3":"DZA","rank":2}},{"type":"Feature","geometry":{"type":"Point","coordinates":[-78.1884,-1.2591]},"properties":{"name":"Ecuador","name_en":"Ecuador","name:latin":"Ecuador","name:fr":"Équateur","name:ar":"الإكوادور","name:nonlatin":"الإكوادور","iso_a2":"EC","adm0_a3":"ECU","rank":2}},{"type":"Feature","geometry":{"type":"Point","coordinates":[29.4458,26.1862]},"properties":{"name":"Egypt","name_en":"Egypt","name:latin":"Egypt","name:fr":"Égypte","name:ar":"مصر","name:nonlatin":"مصر","iso_a2":"EG","adm0_a3":"EGY","rank":1}},{"type":"Feature","geometry":{"type":"Point","coordinates":[38.2856,15.7874]},"properties":{"name":"Eritrea","name_en":"Eritrea","name:latin":"Eritrea","name:fr":"Érythrée","name:ar":"إريتريا","name:nonlatin":"إريتريا","iso_a2":"ER","adm0_a3":"ERI","rank":2}},{"type":"Feature","geometry":{"type":"Point","coordinates":[-3.4647,40.091]},"properties":{"name":"Spain","name_en":"Spain","name:latin":"Spain","name:fr":"Espagne","name:ar":"إسبانيا","name:nonlatin":"إسبانيا","iso_a2":"ES","adm0_a3":"ESP","rank":1}},{"type":"Feature","geometry":{"type":"Point","coordinates":[25.8671,58.7249]},"properties":{"name":"Estonia","name_en":"Estonia","name:latin":"Estonia","name:fr":"Estonie","name:ar":"إستونيا","name:nonlatin":"إستونيا","iso_a2":"EE","adm0_a3":"EST","rank":3}},{"type":"Feature","geometry":{"type":"Point","coordinates":[39.0886,8.0328]},"properties":{"name":"Ethiopia","name_en":"Ethiopia","name:latin":"Ethiopia","name:fr":"Éthiopie","name:ar":"إثيوبيا","name:nonlatin":"إثيوبيا","iso_a2":"ET","adm0_a3":"ETH","rank":1}},{"type":"Feature","geometry":{"type":"Point","coordinates":[27.2764,63.2524]},"properties":{"name":"Finland","name_en":"Finland","name:latin":"Finland","name:fr":"Finlande","name:ar":"فنلندا","name:nonlatin":"فنلندا","iso_a2":"FI","adm0_a3":"FIN","rank":2}},{"type":"Feature","geometry":{"type":"Point","coordinates":[177.9754,-17.8261]},"properties":{"name":"Fiji","name_en":"Fiji","name:latin":"Fiji","name:fr":"Fidji","name:ar":"فيجي","name:nonlatin":"فيجي","iso_a2":"FJ","adm0_a3":"FJI","rank":3}},{"type":"Feature","geometry":{"type":"Point","coordinates":[-58.7386,-51.6089]},"properties":{"name":"Falkland Islands","name_en":"Falkland Islands","name:latin":"Falkland Islands","name:fr":"îles Malouines","name:ar":"جزر فوكلاند","name:nonlatin":"جزر فوكلاند","iso_a2":"FK","adm0_a3":"FLK","rank":3}},{"type":"Feature","geometry":{"type":"Point","coordinates":[2.5523,46.6961]},"properties":{"name":"France","name_en":"France","name:latin":"France","name:fr":"France","name:ar":"فرنسا","name:nonlatin":"فرنسا","iso_a2":"-99","adm0_a3":"FRA","rank":1}},{"type":"Feature","geometry":{"type":"Point","coordinates":[11.8359,-0.4377]},"properties":{"name":"Gabon","name_en":"Gabon","name:latin":"Gabon","name:fr":"Gabon","name:ar":"الغابون","name:nonlatin":"الغابون","iso_a2":"GA","adm0_a3":"GAB","rank":2}},{"type":"Feature","geometry":{"type":"Point","coordinates":[-2.1163,54.4027]},"properties":{"name":"United Kingdom","name_en":"United Kingdom","name:latin":"United Kingdom","name:fr":"Royaume-Uni","name:ar":"المملكة المتحدة","name:nonlatin":"المملكة المتحدة","iso_a2":"GB","adm0_a3":"GBR","rank":1}},{"type":"Feature","geometry":{"type":"Point","coordinates":[43.7357,41.8701]},"properties":{"name":"Georgia","name_en":"Georgia","name:latin":"Georgia","name:fr":"Géorgie","name:ar":"جورجيا","name:nonlatin":"جورجيا","iso_a2":"GE","adm0_a3":"GEO","rank":3}},{"type":"Feature","geometry":{"type":"Point","coordinates":[-1.0369,7.7176]},"properties":{"name":"Ghana","name_en":"Ghana","name:latin":"Ghana","name:fr":"Ghana","name:ar":"غانا","name:nonlatin":"غانا","iso_a2":"GH","adm0_a3":"GHA","rank":2}},{"type":"Feature","geometry":{"type":"Point","coordinates":[-10.0164,10.6185]},"properties":{"name":"Guinea","name_en":"Guinea","name:latin":"Guinea","name:fr":"Guinée","name:ar":"غينيا","name:nonlatin":"غينيا","iso_a2":"GN","adm0_a3":"GIN","rank":2}},{"type":"Feature","geometry":{"type":"Point","coordinates":[-14.9983,13.6417]},"properties":{"name":"The Gambia","name_en":"The Gambia","name:latin":"The Gambia","name:fr":"Gambie","name:ar":"غامبيا","name:nonlatin":"غامبيا","iso_a2":"GM","adm0_a3":"GMB","rank":3}},{"type":"Feature","geometry":{"type":"Point","coordinates":[-14.5241,12.1637]},"properties":{"name":"Guinea-Bissau","name_en":"Guinea-Bissau","name:latin":"Guinea-Bissau","name:fr":"Guinée-Bissau","name:ar":"غينيا بيساو","name:nonlatin":"غينيا بيساو","iso_a2":"GW","adm0_a3":"GNB","rank":3}},{"type":"Feature","geometry":{"type":"Point","coordinates":[8.9902,2.333]},"properties":{"name":"Equatorial Guinea","name_en":"Equatorial Guinea","name:latin":"Equatorial Guinea","name:fr":"Guinée équatoriale","name:ar":"غينيا الاستوائية","name:nonlatin":"غينيا الاستوائية","iso_a2":"GQ","adm0_a3":"GNQ","rank":2}},{"type":"Feature","geometry":{"type":"Point","coordinates":[21.7257,39.4928]},"properties":{"name":"Greece","name_en":"Greece","name:latin":"Greece","name:fr":"Grèce","name:ar":"اليونان","name:nonlatin":"اليونان","iso_a2":"GR","adm0_a3":"GRC","rank":2}},{"type":"Feature","geometry":{"type":"Point","coordinates":[-39.3353,74.3194]},"properties":{"name":"Greenland","name_en":"Greenland","name:latin":"Greenland","name:fr":"Groenland","name:ar":"جرينلاند","name:nonlatin":"جرينلاند","iso_a2":"GL","adm0_a3":"GRL","rank":2}},{"type":"Feature","geometry":{"type":"Point","coordinates":[-90.4971,14.9821]},"properties":{"name":"Guatemala","name_en":"Guatemala","name:latin":"Guatemala","name:fr":"Guatemala","name:ar":"غواتيمالا","name:nonlatin":"غواتيمالا","iso_a2":"GT","adm0_a3":"GTM","rank":2}},{"type":"Feature","geometry":{"type":"Point","coordinates":[-58.9426,5.1243]},"properties":{"name":"Guyana","name_en":"Guyana","name:latin":"Guyana","name:fr":"Guyana","name:ar":"غيانا","name:nonlatin":"غيانا","iso_a2":"GY","adm0_a3":"GUY","rank":2}},{"type":"Feature","geometry":{"type":"Point","coordinates":[-86.8876,14.7948]},"properties":{"name":"Honduras","name_en":"Honduras","name:latin":"Honduras","name:fr":"Honduras","name:ar":"هندوراس","name:nonlatin":"هندوراس","iso_a2":"HN","adm0_a3":"HND","rank":3}},{"type":"Feature","geometry":{"type":"Point","coordinates":[16.3724,45.8058]},"properties":{"name":"Croatia","name_en":"Croatia","name:latin":"Croatia","name:fr":"Croatie","name:ar":"كرواتيا","name:nonlatin":"كرواتيا","iso_a2":"HR","adm0_a3":"HRV","rank":3}},{"type":"Feature","geometry":{"type":"Point","coordinates":[-72.2241,19.2638]},"properties":{"name":"Haiti","name_en":"Haiti","name:latin":"Haiti","name:fr":"Haïti","name:ar":"هايتي","name:nonlatin":"هايتي","iso_a2":"HT","adm0_a3":"HTI","rank":3}},{"type":"Feature","geometry":{"type":"Point","coordinates":[19.4479,47.0868]},"properties":{"name":"Hungary","name_en":"Hungary","name:latin":"Hungary","name:fr":"Hongrie","name:ar":"المجر","name:nonlatin":"المجر","iso_a2":"HU","adm0_a3":"HUN","rank":3}},{"type":"Feature","geometry":{"type":"Point","coordinates":[101.8929,-0.9544]},"properties":{"name":"Indonesia","name_en":"Indonesia","name:latin":"Indonesia","name:fr":"Indonésie","name:ar":"إندونيسيا","name:nonlatin":"إندونيسيا","iso_a2":"ID","adm0_a3":"IDN","rank":1}},{"type":"Feature","geometry":{"type":"Point","coordinates":[79.3581,22.6869]},"properties":{"name":"India","name_en":"India","name:latin":"India","name:fr":"Inde","name:ar":"الهند","name:nonlatin":"الهند","iso_a2":"IN","adm0_a3":"IND","rank":1}},{"type":"Feature","geometry":{"type":"Point","coordinates":[-7.7986,53.0787]},"properties":{"name":"Ireland","name_en":"Ireland","name:latin":"Ireland","name:fr":"Irlande","name:ar":"جمهورية أيرلندا","name:nonlatin":"جمهورية أيرلندا","iso_a2":"IE","adm0_a3":"IRL","rank":2}},{"type":"Feature","geometry":{"type":"Point","coordinates":[54.9315,32.1662]},"properties":{"name":"Iran","name_en":"Iran","name:latin":"Iran","name:fr":"Iran","name:ar":"إيران","name:nonlatin":"إيران","iso_a2":"IR","adm0_a3":"IRN","rank":1}},{"type":"Feature","geometry":{"type":"Point","coordinates":[43.2618,33.094]},"properties":{"name":"Iraq","name_en":"Iraq","name:latin":"Iraq","name:fr":"Irak","name:ar":"العراق","name:nonlatin":"العراق","iso_a2":"IQ","adm0_a3":"IRQ","rank":2}},{"type":"Feature","geometry":{"type":"Point","coordinates":[-18.6737,64.7793]},"properties":{"name":"Iceland","name_en":"Iceland","name:latin":"Iceland","name:fr":"Islande","name:ar":"آيسلندا","name:nonlatin":"آيسلندا","iso_a2":"IS","adm0_a3":"ISL","rank":2}},{"type":"Feature","geometry":{"type":"Point","coordinates":[34.8479,30.9111]},"properties":{"name":"Israel","name_en":"Israel","name:latin":"Israel","name:fr":"Israël","name:ar":"إسرائيل","name:nonlatin":"إسرائيل","iso_a2":"IL","adm0_a3":"ISR","rank":2}},{"type":"Feature","geometry":{"type":"Point","coordinates":[11.0769,44.7325]},"properties":{"name":"Italy","name_en":"Italy","name:latin":"Italy","name:fr":"Italie","name:ar":"إيطاليا","name:nonlatin":"إيطاليا","iso_a2":"IT","adm0_a3":"ITA","rank":1}},{"type":"Feature","geometry":{"type":"Point","coordinates":[-77.3188,18.1371]},"properties":{"name":"Jamaica","name_en":"Jamaica","name:latin":"Jamaica","name:fr":"Jamaïque","name:ar":"جامايكا","name:nonlatin":"جامايكا","iso_a2":"JM","adm0_a3":"JAM","rank":2}},{"type":"Feature","geometry":{"type":"Point","coordinates":[36.376,30.805]},"properties":{"name":"Jordan","name_en":"Jordan","name:latin":"Jordan","name:fr":"Jordanie","name:ar":"الأردن","name:nonlatin":"الأردن","iso_a2":"JO","adm0_a3":"JOR","rank":2}},{"type":"Feature","geometry":{"type":"Point","coordinates":[138.4422,36.1425]},"properties":{"name":"Japan","name_en":"Japan","name:latin":"Japan","name:fr":"Japon","name:ar":"اليابان","name:nonlatin":"اليابان","iso_a2":"JP","adm0_a3":"JPN","rank":1}},{"type":"Feature","geometry":{"type":"Point","coordinates":[68.6855,49.0541]},"properties":{"name":"Kazakhstan","name_en":"Kazakhstan","name:latin":"Kazakhstan","name:fr":"Kazakhstan","name:ar":"كازاخستان","name:nonlatin":"كازاخستان","iso_a2":"KZ","adm0_a3":"KAZ","rank":2}},{"type":"Feature","geometry":{"type":"Point","coordinates":[37.9076,0.549]},"properties":{"name":"Kenya","name_en":"Kenya","name:latin":"Kenya","name:fr":"Kenya","name:ar":"كينيا","name:nonlatin":"كينيا","iso_a2":"KE","adm0_a3":"KEN","rank":1}},{"type":"Feature","geometry":{"type":"Point","coordinates":[74.5326,41.6685]},"properties":{"name":"Kyrgyzstan","name_en":"Kyrgyzstan","name:latin":"Kyrgyzstan","name:fr":"Kirghizistan","name:ar":"قيرغيزستان","name:nonlatin":"قيرغيزستان","iso_a2":"KG","adm0_a3":"KGZ","rank":2}},{"type":"Feature","geometry":{"type":"Point","coordinates":[104.5049,12.6476]},"properties":{"name":"Cambodia","name_en":"Cambodia","name:latin":"Cambodia","name:fr":"Cambodge","name:ar":"كمبوديا","name:nonlatin":"كمبوديا","iso_a2":"KH","adm0_a3":"KHM","rank":2}},{"type":"Feature","geometry":{"type":"Point","coordinates":[128.1295,36.3849]},"properties":{"name":"South Korea","name_en":"South Korea","name:latin":"South Korea","name:fr":"Corée du Sud","name:ar":"كوريا الجنوبية","name:nonlatin":"كوريا الجنوبية","iso_a2":"KR","adm0_a3":"KOR","rank":1}},{"type":"Feature","geometry":{"type":"Point","coordinates":[20.8607,42.5936]},"properties":{"name":"Kosovo","name_en":"Kosovo","name:latin":"Kosovo","name:fr":"Kosovo","name:ar":"كوسوفو","name:nonlatin":"كوسوفو","iso_a2":"-99","adm0_a3":"KOS","rank":3}},{"type":"Feature","geometry":{"type":"Point","coordinates":[47.314,29.4136]},"properties":{"name":"Kuwait","name_en":"Kuwait","name:latin":"Kuwait","name:fr":"Koweït","name:ar":"الكويت","name:nonlatin":"الكويت","iso_a2":"KW","adm0_a3":"KWT","rank":3}},{"type":"Feature","geometry":{"type":"Point","coordinates":[102.5339,19.4318]},"properties":{"name":"Laos","name_en":"Laos","name:latin":"Laos","name:fr":"Laos","name:ar":"لاوس","name:nonlatin":"لاوس","iso_a2":"LA","adm0_a3":"LAO","rank":2}},{"type":"Feature","geometry":{"type":"Point","coordinates":[35.9929,34.1334]},"properties":{"name":"Lebanon","name_en":"Lebanon","name:latin":"Lebanon","name:fr":"Liban","name:ar":"لبنان","name:nonlatin":"لبنان","iso_a2":"LB","adm0_a3":"LBN","rank":3}},{"type":"Feature","geometry":{"type":"Point","coordinates":[-9.4604,6.4472]},"properties":{"name":"Liberia","name_en":"Liberia","name:latin":"Liberia","name:fr":"Liberia","name:ar":"ليبيريا","name:nonlatin":"ليبيريا","iso_a2":"LR","adm0_a3":"LBR","rank":2}},{"type":"Feature","geometry":{"type":"Point","coordinates":[18.011,26.6389]},"properties":{"name":"Libya","name_en":"Libya","name:latin":"Libya","name:fr":"Libye","name:ar":"ليبيا","name:nonlatin":"ليبيا","iso_a2":"LY","adm0_a3":"LBY","rank":2}},{"type":"Feature","geometry":{"type":"Point","coordinates":[80.7048,7.5811]},"properties":{"name":"Sri Lanka","name_en":"Sri Lanka","name:latin":"Sri Lanka","name:fr":"Sri Lanka","name:ar":"سريلانكا","name:nonlatin":"سريلانكا","iso_a2":"LK","adm0_a3":"LKA","rank":2}},{"type":"Feature","geometry":{"type":"Point","coordinates":[28.2466,-29.4802]},"properties":{"name":"Lesotho","name_en":"Lesotho","name:latin":"Lesotho","name:fr":"Lesotho","name:ar":"ليسوتو","name:nonlatin":"ليسوتو","iso_a2":"LS","adm0_a3":"LSO","rank":3}},{"type":"Feature","geometry":{"type":"Point","coordinates":[24.0899,55.1037]},"properties":{"name":"Lithuania","name_en":"Lithuania","name:latin":"Lithuania","name:fr":"Lituanie","name:ar":"ليتوانيا","name:nonlatin":"ليتوانيا","iso_a2":"LT","adm0_a3":"LTU","rank":3}},{"type":"Feature","geometry":{"type":"Point","coordinates":[6.0776,49.7337]},"properties":{"name":"Luxembourg","name_en":"Luxembourg","name:latin":"Luxembourg","name:fr":"Luxembourg","name:ar":"لوكسمبورغ","name:nonlatin":"لوكسمبورغ","iso_a2":"LU","adm0_a3":"LUX","rank":3}},{"type":"Feature","geometry":{"type":"Point","coordinates":[25.4587,57.0669]},"properties":{"name":"Latvia","name_en":"Latvia","name:latin":"Latvia","name:fr":"Lettonie","name:ar":"لاتفيا","name:nonlatin":"لاتفيا","iso_a2":"LV","adm0_a3":"LVA","rank":3}},{"type":"Feature","geometry":{"type":"Point","coordinates":[-7.1873,31.6507]},"properties":{"name":"Morocco","name_en":"Morocco","name:latin":"Morocco","name:fr":"Maroc","name:ar":"المغرب","name:nonlatin":"المغرب","iso_a2":"MA","adm0_a3":"MAR","rank":1,"national":true}},{"type":"Feature","geometry":{"type":"Point","coordinates":[28.4879,47.435]},"properties":{"name":"Moldova","name_en":"Moldova","name:latin":"Moldova","name:fr":"Moldavie","name:ar":"مولدوفا","name:nonlatin":"مولدوفا","iso_a2":"MD","adm0_a3":"MDA","rank":3}},{"type":"Feature","geometry":{"type":"Point","coordinates":[46.7042,-18.6283]},"properties":{"name":"Madagascar","name_en":"Madagascar","name:latin":"Madagascar","name:fr":"Madagascar","name:ar":"مدغشقر","name:nonlatin":"مدغشقر","iso_a2":"MG","adm0_a3":"MDG","rank":2}},{"type":"Feature","geometry":{"type":"Point","coordinates":[-102.2894,23.92]},"properties":{"name":"Mexico","name_en":"Mexico","name:latin":"Mexico","name:fr":"Mexique","name:ar":"المكسيك","name:nonlatin":"المكسيك","iso_a2":"MX","adm0_a3":"MEX","rank":1}},{"type":"Feature","geometry":{"type":"Point","coordinates":[21.5558,41.5582]},"properties":{"name":"North Macedonia","name_en":"North Macedonia","name:latin":"North Macedonia","name:fr":"Macédoine du Nord","name:ar":"مقدونيا الشمالية","name:nonlatin":"مقدونيا الشمالية","iso_a2":"MK","adm0_a3":"MKD","rank":3}},{"type":"Feature","geometry":{"type":"Point","coordinates":[-2.0385,18.6927]},"properties":{"name":"Mali","name_en":"Mali","name:latin":"Mali","name:fr":"Mali","name:ar":"مالي","name:nonlatin":"مالي","iso_a2":"ML","adm0_a3":"MLI","rank":2}},{"type":"Feature","geometry":{"type":"Point","coordinates":[95.8045,21.5739]},"properties":{"name":"Myanmar","name_en":"Myanmar","name:latin":"Myanmar","name:fr":"Birmanie","name:ar":"ميانمار","name:nonlatin":"ميانمار","iso_a2":"MM","adm0_a3":"MMR","rank":2}},{"type":"Feature","geometry":{"type":"Point","coordinates":[19.1437,42.8031]},"properties":{"name":"Montenegro","name_en":"Montenegro","name:latin":"Montenegro","name:fr":"Monténégro","name:ar":"الجبل الأسود","name:nonlatin":"الجبل الأسود","iso_a2":"ME","adm0_a3":"MNE","rank":3}},{"type":"Feature","geometry":{"type":"Point","coordinates":[104.1504,45.9975]},"properties":{"name":"Mongolia","name_en":"Mongolia","name:latin":"Mongolia","name:fr":"Mongolie","name:ar":"منغوليا","name:nonlatin":"منغوليا","iso_a2":"MN","adm0_a3":"MNG","rank":2}},{"type":"Feature","geometry":{"type":"Point","coordinates":[37.8379,-13.9432]},"properties":{"name":"Mozambique","name_en":"Mozambique","name:latin":"Mozambique","name:fr":"Mozambique","name:ar":"موزمبيق","name:nonlatin":"موزمبيق","iso_a2":"MZ","adm0_a3":"MOZ","rank":2}},{"type":"Feature","geometry":{"type":"Point","coordinates":[-9.7403,19.5871]},"properties":{"name":"Mauritania","name_en":"Mauritania","name:latin":"Mauritania","name:fr":"Mauritanie","name:ar":"موريتانيا","name:nonlatin":"موريتانيا","iso_a2":"MR","adm0_a3":"MRT","rank":2}},{"type":"Feature","geometry":{"type":"Point","coordinates":[33.6081,-13.3867]},"properties":{"name":"Malawi","name_en":"Malawi","name:latin":"Malawi","name:fr":"Malawi","name:ar":"مالاوي","name:nonlatin":"مالاوي","iso_a2":"MW","adm0_a3":"MWI","rank":3}},{"type":"Feature","geometry":{"type":"Point","coordinates":[113.8371,2.5287]},"properties":{"name":"Malaysia","name_en":"Malaysia","name:latin":"Malaysia","name:fr":"Malaisie","name:ar":"ماليزيا","name:nonlatin":"ماليزيا","iso_a2":"MY","adm0_a3":"MYS","rank":2}},{"type":"Feature","geometry":{"type":"Point","coordinates":[17.1082,-20.5753]},"properties":{"name":"Namibia","name_en":"Namibia","name:latin":"Namibia","name:fr":"Namibie","name:ar":"ناميبيا","name:nonlatin":"ناميبيا","iso_a2":"NA","adm0_a3":"NAM","rank":2}},{"type":"Feature","geometry":{"type":"Point","coordinates":[9.5044,17.4462]},"properties":{"name":"Niger","name_en":"Niger","name:latin":"Niger","name:fr":"Niger","name:ar":"النيجر","name:nonlatin":"النيجر","iso_a2":"NE","adm0_a3":"NER","rank":2}},{"type":"Feature","geometry":{"type":"Point","coordinates":[7.5032,9.4398]},"properties":{"name":"Nigeria","name_en":"Nigeria","name:latin":"Nigeria","name:fr":"Nigeria","name:ar":"نيجيريا","name:nonlatin":"نيجيريا","iso_a2":"NG","adm0_a3":"NGA","rank":1}},{"type":"Feature","geometry":{"type":"Point","coordinates":[-85.0693,12.6707]},"properties":{"name":"Nicaragua","name_en":"Nicaragua","name:latin":"Nicaragua","name:fr":"Nicaragua","name:ar":"نيكاراغوا","name:nonlatin":"نيكاراغوا","iso_a2":"NI","adm0_a3":"NIC","rank":3}},{"type":"Feature","geometry":{"type":"Point","coordinates":[5.6114,52.4222]},"properties":{"name":"Netherlands","name_en":"Netherlands","name:latin":"Netherlands","name:fr":"Pays-Bas","name:ar":"هولندا","name:nonlatin":"هولندا","iso_a2":"NL","adm0_a3":"NLD","rank":3}},{"type":"Feature","geometry":{"type":"Point","coordinates":[9.68,61.3571]},"properties":{"name":"Norway","name_en":"Norway","name:latin":"Norway","name:fr":"Norvège","name:ar":"النرويج","name:nonlatin":"النرويج","iso_a2":"-99","adm0_a3":"NOR","rank":2}},{"type":"Feature","geometry":{"type":"Point","coordinates":[83.6399,28.2979]},"properties":{"name":"Nepal","name_en":"Nepal","name:latin":"Nepal","name:fr":"Népal","name:ar":"نيبال","name:nonlatin":"نيبال","iso_a2":"NP","adm0_a3":"NPL","rank":2}},{"type":"Feature","geometry":{"type":"Point","coordinates":[172.787,-39.759]},"properties":{"name":"New Zealand","name_en":"New Zealand","name:latin":"New Zealand","name:fr":"Nouvelle-Zélande","name:ar":"نيوزيلندا","name:nonlatin":"نيوزيلندا","iso_a2":"NZ","adm0_a3":"NZL","rank":1}},{"type":"Feature","geometry":{"type":"Point","coordinates":[57.3366,22.1204]},"properties":{"name":"Oman","name_en":"Oman","name:latin":"Oman","name:fr":"Oman","name:ar":"سلطنة عمان","name:nonlatin":"سلطنة عمان","iso_a2":"OM","adm0_a3":"OMN","rank":2}},{"type":"Feature","geometry":{"type":"Point","coordinates":[68.5456,29.3284]},"properties":{"name":"Pakistan","name_en":"Pakistan","name:latin":"Pakistan","name:fr":"Pakistan","name:ar":"باكستان","name:nonlatin":"باكستان","iso_a2":"PK","adm0_a3":"PAK","rank":1}},{"type":"Feature","geometry":{"type":"Point","coordinates":[-80.3521,8.722]},"properties":{"name":"Panama","name_en":"Panama","name:latin":"Panama","name:fr":"Panama","name:ar":"بنما","name:nonlatin":"بنما","iso_a2":"PA","adm0_a3":"PAN","rank":2}},{"type":"Feature","geometry":{"type":"Point","coordinates":[-72.9002,-12.9767]},"properties":{"name":"Peru","name_en":"Peru","name:latin":"Peru","name:fr":"Pérou","name:ar":"بيرو","name:nonlatin":"بيرو","iso_a2":"PE","adm0_a3":"PER","rank":1}},{"type":"Feature","geometry":{"type":"Point","coordinates":[122.465,11.198]},"properties":{"name":"Philippines","name_en":"Philippines","name:latin":"Philippines","name:fr":"Philippines","name:ar":"الفلبين","name:nonlatin":"الفلبين","iso_a2":"PH","adm0_a3":"PHL","rank":1}},{"type":"Feature","geometry":{"type":"Point","coordinates":[143.9102,-5.6953]},"properties":{"name":"Papua New Guinea","name_en":"Papua New Guinea","name:latin":"Papua New Guinea","name:fr":"Papouasie-Nouvelle-Guinée","name:ar":"بابوا غينيا الجديدة","name:nonlatin":"بابوا غينيا الجديدة","iso_a2":"PG","adm0_a3":"PNG","rank":1}},{"type":"Feature","geometry":{"type":"Point","coordinates":[19.4905,51.9903]},"properties":{"name":"Poland","name_en":"Poland","name:latin":"Poland","name:fr":"Pologne","name:ar":"بولندا","name:nonlatin":"بولندا","iso_a2":"PL","adm0_a3":"POL","rank":2}},{"type":"Feature","geometry":{"type":"Point","coordinates":[126.4445,39.8853]},"properties":{"name":"North Korea","name_en":"North Korea","name:latin":"North Korea","name:fr":"Corée du Nord","name:ar":"كوريا الشمالية","name:nonlatin":"كوريا الشمالية","iso_a2":"KP","adm0_a3":"PRK","rank":2}},{"type":"Feature","geometry":{"type":"Point","coordinates":[-8.2718,39.6067]},"properties":{"name":"Portugal","name_en":"Portugal","name:latin":"Portugal","name:fr":"Portugal","name:ar":"البرتغال","name:nonlatin":"البرتغال","iso_a2":"PT","adm0_a3":"PRT","rank":1}},{"type":"Feature","geometry":{"type":"Point","coordinates":[-60.1464,-21.6745]},"properties":{"name":"Paraguay","name_en":"Paraguay","name:latin":"Paraguay","name:fr":"Paraguay","name:ar":"باراغواي","name:nonlatin":"باراغواي","iso_a2":"PY","adm0_a3":"PRY","rank":2}},{"type":"Feature","geometry":{"type":"Point","coordinates":[35.2913,32.0474]},"properties":{"name":"Palestine","name_en":"Palestine","name:latin":"Palestine","name:fr":"Palestine","name:ar":"فلسطين","name:nonlatin":"فلسطين","iso_a2":"PS","adm0_a3":"PSX","rank":3}},{"type":"Feature","geometry":{"type":"Point","coordinates":[51.1435,25.2374]},"properties":{"name":"Qatar","name_en":"Qatar","name:latin":"Qatar","name:fr":"Qatar","name:ar":"قطر","name:nonlatin":"قطر","iso_a2":"QA","adm0_a3":"QAT","rank":3}},{"type":"Feature","geometry":{"type":"Point","coordinates":[24.9726,45.7332]},"properties":{"name":"Romania","name_en":"Romania","name:latin":"Romania","name:fr":"Roumanie","name:ar":"رومانيا","name:nonlatin":"رومانيا","iso_a2":"RO","adm0_a3":"ROU","rank":2}},{"type":"Feature","geometry":{"type":"Point","coordinates":[44.6865,58.2494]},"properties":{"name":"Russia","name_en":"Russia","name:latin":"Russia","name:fr":"Russie","name:ar":"روسيا","name:nonlatin":"روسيا","iso_a2":"RU","adm0_a3":"RUS","rank":1}},{"type":"Feature","geometry":{"type":"Point","coordinates":[30.1039,-1.8972]},"properties":{"name":"Rwanda","name_en":"Rwanda","name:latin":"Rwanda","name:fr":"Rwanda","name:ar":"رواندا","name:nonlatin":"رواندا","iso_a2":"RW","adm0_a3":"RWA","rank":2}},{"type":"Feature","geometry":{"type":"Point","coordinates":[44.6996,23.8069]},"properties":{"name":"Saudi Arabia","name_en":"Saudi Arabia","name:latin":"Saudi Arabia","name:fr":"Arabie saoudite","name:ar":"السعودية","name:nonlatin":"السعودية","iso_a2":"SA","adm0_a3":"SAU","rank":1}},{"type":"Feature","geometry":{"type":"Point","coordinates":[29.2607,16.3307]},"properties":{"name":"Sudan","name_en":"Sudan","name:latin":"Sudan","name:fr":"Soudan","name:ar":"السودان","name:nonlatin":"السودان","iso_a2":"SD","adm0_a3":"SDN","rank":2}},{"type":"Feature","geometry":{"type":"Point","coordinates":[30.3902,7.2305]},"properties":{"name":"South Sudan","name_en":"South Sudan","name:latin":"South Sudan","name:fr":"Soudan du Sud","name:ar":"جنوب السودان","name:nonlatin":"جنوب السودان","iso_a2":"SS","adm0_a3":"SDS","rank":2}},{"type":"Feature","geometry":{"type":"Point","coordinates":[-14.7786,15.1381]},"properties":{"name":"Senegal","name_en":"Senegal","name:latin":"Senegal","name:fr":"Sénégal","name:ar":"السنغال","name:nonlatin":"السنغال","iso_a2":"SN","adm0_a3":"SEN","rank":2}},{"type":"Feature","geometry":{"type":"Point","coordinates":[159.1705,-8.0295]},"properties":{"name":"Solomon Islands","name_en":"Solomon Islands","name:latin":"Solomon Islands","name:fr":"Îles Salomon","name:ar":"جزر سليمان","name:nonlatin":"جزر سليمان","iso_a2":"SB","adm0_a3":"SLB","rank":2}},{"type":"Feature","geometry":{"type":"Point","coordinates":[-11.7637,8.6174]},"properties":{"name":"Sierra Leone","name_en":"Sierra Leone","name:latin":"Sierra Leone","name:fr":"Sierra Leone","name:ar":"سيراليون","name:nonlatin":"سيراليون","iso_a2":"SL","adm0_a3":"SLE","rank":2}},{"type":"Feature","geometry":{"type":"Point","coordinates":[-88.8901,13.6854]},"properties":{"name":"El Salvador","name_en":"El Salvador","name:latin":"El Salvador","name:fr":"Salvador","name:ar":"السلفادور","name:nonlatin":"السلفادور","iso_a2":"SV","adm0_a3":"SLV","rank":3}},{"type":"Feature","geometry":{"type":"Point","coordinates":[46.7316,9.4439]},"properties":{"name":"Somaliland","name_en":"Somaliland","name:latin":"Somaliland","name:fr":"Somaliland","name:ar":"صوماليلاند","name:nonlatin":"صوماليلاند","iso_a2":"-99","adm0_a3":"SOL","rank":3}},{"type":"Feature","geometry":{"type":"Point","coordinates":[45.1924,3.5689]},"properties":{"name":"Somalia","name_en":"Somalia","name:latin":"Somalia","name:fr":"Somalie","name:ar":"الصومال","name:nonlatin":"الصومال","iso_a2":"SO","adm0_a3":"SOM","rank":3}},{"type":"Feature","geometry":{"type":"Point","coordinates":[20.788,44.1899]},"properties":{"name":"Serbia","name_en":"Serbia","name:latin":"Serbia","name:fr":"Serbie","name:ar":"صربيا","name:nonlatin":"صربيا","iso_a2":"RS","adm0_a3":"SRB","rank":3}},{"type":"Feature","geometry":{"type":"Point","coordinates":[-55.9109,4.144]},"properties":{"name":"Suriname","name_en":"Suriname","name:latin":"Suriname","name:fr":"Suriname","name:ar":"سورينام","name:nonlatin":"سورينام","iso_a2":"SR","adm0_a3":"SUR","rank":2}},{"type":"Feature","geometry":{"type":"Point","coordinates":[19.0499,48.734]},"properties":{"name":"Slovakia","name_en":"Slovakia","name:latin":"Slovakia","name:fr":"Slovaquie","name:ar":"سلوفاكيا","name:nonlatin":"سلوفاكيا","iso_a2":"SK","adm0_a3":"SVK","rank":3}},{"type":"Feature","geometry":{"type":"Point","coordinates":[14.9153,46.0608]},"properties":{"name":"Slovenia","name_en":"Slovenia","name:latin":"Slovenia","name:fr":"Slovénie","name:ar":"سلوفينيا","name:nonlatin":"سلوفينيا","iso_a2":"SI","adm0_a3":"SVN","rank":3}},{"type":"Feature","geometry":{"type":"Point","coordinates":[19.0171,65.8592]},"properties":{"name":"Sweden","name_en":"Sweden","name:latin":"Sweden","name:fr":"Suède","name:ar":"السويد","name:nonlatin":"السويد","iso_a2":"SE","adm0_a3":"SWE","rank":2}},{"type":"Feature","geometry":{"type":"Point","coordinates":[31.4673,-26.5337]},"properties":{"name":"Eswatini","name_en":"Eswatini","name:latin":"Eswatini","name:fr":"Eswatini","name:ar":"إسواتيني","name:nonlatin":"إسواتيني","iso_a2":"SZ","adm0_a3":"SWZ","rank":2}},{"type":"Feature","geometry":{"type":"Point","coordinates":[38.2778,35.0066]},"properties":{"name":"Syria","name_en":"Syria","name:latin":"Syria","name:fr":"Syrie","name:ar":"سوريا","name:nonlatin":"سوريا","iso_a2":"SY","adm0_a3":"SYR","rank":2}},{"type":"Feature","geometry":{"type":"Point","coordinates":[18.645,15.143]},"properties":{"name":"Chad","name_en":"Chad","name:latin":"Chad","name:fr":"Tchad","name:ar":"تشاد","name:nonlatin":"تشاد","iso_a2":"TD","adm0_a3":"TCD","rank":2}},{"type":"Feature","geometry":{"type":"Point","coordinates":[1.0581,8.8072]},"properties":{"name":"Togo","name_en":"Togo","name:latin":"Togo","name:fr":"Togo","name:ar":"توغو","name:nonlatin":"توغو","iso_a2":"TG","adm0_a3":"TGO","rank":3}},{"type":"Feature","geometry":{"type":"Point","coordinates":[101.0732,15.4597]},"properties":{"name":"Thailand","name_en":"Thailand","name:latin":"Thailand","name:fr":"Thaïlande","name:ar":"تايلاند","name:nonlatin":"تايلاند","iso_a2":"TH","adm0_a3":"THA","rank":2}},{"type":"Feature","geometry":{"type":"Point","coordinates":[72.5873,38.1998]},"properties":{"name":"Tajikistan","name_en":"Tajikistan","name:latin":"Tajikistan","name:fr":"Tadjikistan","name:ar":"طاجيكستان","name:nonlatin":"طاجيكستان","iso_a2":"TJ","adm0_a3":"TJK","rank":2}},{"type":"Feature","geometry":{"type":"Point","coordinates":[58.6766,39.8552]},"properties":{"name":"Turkmenistan","name_en":"Turkmenistan","name:latin":"Turkmenistan","name:fr":"Turkménistan","name:ar":"تركمانستان","name:nonlatin":"تركمانستان","iso_a2":"TM","adm0_a3":"TKM","rank":2}},{"type":"Feature","geometry":{"type":"Point","coordinates":[125.8547,-8.8037]},"properties":{"name":"East Timor","name_en":"East Timor","name:latin":"East Timor","name:fr":"Timor oriental","name:ar":"تيمور الشرقية","name:nonlatin":"تيمور الشرقية","iso_a2":"TL","adm0_a3":"TLS","rank":3}},{"type":"Feature","geometry":{"type":"Point","coordinates":[-60.9184,10.9989]},"properties":{"name":"Trinidad and Tobago","name_en":"Trinidad and Tobago","name:latin":"Trinidad and Tobago","name:fr":"Trinité-et-Tobago","name:ar":"ترينيداد وتوباغو","name:nonlatin":"ترينيداد وتوباغو","iso_a2":"TT","adm0_a3":"TTO","rank":3}},{"type":"Feature","geometry":{"type":"Point","coordinates":[9.0079,33.6873]},"properties":{"name":"Tunisia","name_en":"Tunisia","name:latin":"Tunisia","name:fr":"Tunisie","name:ar":"تونس","name:nonlatin":"تونس","iso_a2":"TN","adm0_a3":"TUN","rank":2}},{"type":"Feature","geometry":{"type":"Point","coordinates":[34.5083,39.3454]},"properties":{"name":"Turkey","name_en":"Turkey","name:latin":"Turkey","name:fr":"Turquie","name:ar":"تركيا","name:nonlatin":"تركيا","iso_a2":"TR","adm0_a3":"TUR","rank":1}},{"type":"Feature","geometry":{"type":"Point","coordinates":[120.8682,23.6524]},"properties":{"name":"Taiwan","name_en":"Taiwan","name:latin":"Taiwan","name:fr":"Taïwan","name:ar":"تايوان","name:nonlatin":"تايوان","iso_a2":"CN-TW","adm0_a3":"TWN","rank":2}},{"type":"Feature","geometry":{"type":"Point","coordinates":[34.9592,-6.0519]},"properties":{"name":"Tanzania","name_en":"Tanzania","name:latin":"Tanzania","name:fr":"Tanzanie","name:ar":"تنزانيا","name:nonlatin":"تنزانيا","iso_a2":"TZ","adm0_a3":"TZA","rank":2}},{"type":"Feature","geometry":{"type":"Point","coordinates":[32.9486,1.9726]},"properties":{"name":"Uganda","name_en":"Uganda","name:latin":"Uganda","name:fr":"Ouganda","name:ar":"أوغندا","name:nonlatin":"أوغندا","iso_a2":"UG","adm0_a3":"UGA","rank":2}},{"type":"Feature","geometry":{"type":"Point","coordinates":[32.1409,49.7247]},"properties":{"name":"Ukraine","name_en":"Ukraine","name:latin":"Ukraine","name:fr":"Ukraine","name:ar":"أوكرانيا","name:nonlatin":"أوكرانيا","iso_a2":"UA","adm0_a3":"UKR","rank":2}},{"type":"Feature","geometry":{"type":"Point","coordinates":[-55.9669,-32.9611]},"properties":{"name":"Uruguay","name_en":"Uruguay","name:latin":"Uruguay","name:fr":"Uruguay","name:ar":"الأوروغواي","name:nonlatin":"الأوروغواي","iso_a2":"UY","adm0_a3":"URY","rank":2}},{"type":"Feature","geometry":{"type":"Point","coordinates":[-97.4826,39.5385]},"properties":{"name":"United States of America","name_en":"United States of America","name:latin":"United States of America","name:fr":"États-Unis","name:ar":"الولايات المتحدة","name:nonlatin":"الولايات المتحدة","iso_a2":"US","adm0_a3":"USA","rank":1}},{"type":"Feature","geometry":{"type":"Point","coordinates":[64.0054,41.6936]},"properties":{"name":"Uzbekistan","name_en":"Uzbekistan","name:latin":"Uzbekistan","name:fr":"Ouzbékistan","name:ar":"أوزبكستان","name:nonlatin":"أوزبكستان","iso_a2":"UZ","adm0_a3":"UZB","rank":2}},{"type":"Feature","geometry":{"type":"Point","coordinates":[-64.5994,7.1825]},"properties":{"name":"Venezuela","name_en":"Venezuela","name:latin":"Venezuela","name:fr":"Venezuela","name:ar":"فنزويلا","name:nonlatin":"فنزويلا","iso_a2":"VE","adm0_a3":"VEN","rank":2}},{"type":"Feature","geometry":{"type":"Point","coordinates":[105.3873,21.7154]},"properties":{"name":"Vietnam","name_en":"Vietnam","name:latin":"Vietnam","name:fr":"Viêt Nam","name:ar":"فيتنام","name:nonlatin":"فيتنام","iso_a2":"VN","adm0_a3":"VNM","rank":1}},{"type":"Feature","geometry":{"type":"Point","coordinates":[166.9088,-15.3715]},"properties":{"name":"Vanuatu","name_en":"Vanuatu","name:latin":"Vanuatu","name:fr":"Vanuatu","name:ar":"فانواتو","name:nonlatin":"فانواتو","iso_a2":"VU","adm0_a3":"VUT","rank":2}},{"type":"Feature","geometry":{"type":"Point","coordinates":[45.8744,15.3282]},"properties":{"name":"Yemen","name_en":"Yemen","name:latin":"Yemen","name:fr":"Yémen","name:ar":"اليمن","name:nonlatin":"اليمن","iso_a2":"YE","adm0_a3":"YEM","rank":2}},{"type":"Feature","geometry":{"type":"Point","coordinates":[23.6657,-29.7088]},"properties":{"name":"South Africa","name_en":"South Africa","name:latin":"South Africa","name:fr":"Afrique du Sud","name:ar":"جنوب أفريقيا","name:nonlatin":"جنوب أفريقيا","iso_a2":"ZA","adm0_a3":"ZAF","rank":1}},{"type":"Feature","geometry":{"type":"Point","coordinates":[26.3953,-14.6608]},"properties":{"name":"Zambia","name_en":"Zambia","name:latin":"Zambia","name:fr":"Zambie","name:ar":"زامبيا","name:nonlatin":"زامبيا","iso_a2":"ZM","adm0_a3":"ZMB","rank":2}},{"type":"Feature","geometry":{"type":"Point","coordinates":[29.9254,-18.9116]},"properties":{"name":"Zimbabwe","name_en":"Zimbabwe","name:latin":"Zimbabwe","name:fr":"Zimbabwe","name:ar":"زيمبابوي","name:nonlatin":"زيمبابوي","iso_a2":"ZW","adm0_a3":"ZWE","rank":2}}]}
